start=new Date('2023-03-16T00:00:00.000Z').valueOf();
sats=[{"SITE":"AFETR","PERIAPSIS":"376.421","EPHEMERIS_TYPE":"0","CENTER_NAME":"EARTH","RCS_SIZE":"LARGE","OBJECT_TYPE":"PAYLOAD","MEAN_ELEMENT_THEORY":"SGP4","TLE_LINE1":"1 55354U 23013Z   23074.91667824 -.00875359  00000-0 -10041-1 0  9996","COUNTRY_CODE":"US","REF_FRAME":"TEME","MEAN_MOTION":"15.63564271","OBJECT_ID":"2023-013Z","EPOCH":"2023-03-15T22:00:00.999936","APOAPSIS":"378.326","LAUNCH_DATE":"2023-01-26","OBJECT_NAME":"STARLINK-5649","TLE_LINE2":"2 55354  42.9994 110.5786 0001410 267.1203 230.0811 15.63564271  1305","MEAN_ANOMALY":"230.0811","BSTAR":"-0.01004100000000","MEAN_MOTION_DDOT":"0.0000000000000","DECAY_DATE":null,"RA_OF_ASC_NODE":"110.5786","PERIOD":"92.097","NORAD_CAT_ID":"55354","FILE":"3861599","INCLINATION":"42.9994","GP_ID":"228210896","ELEMENT_SET_NO":"999","MEAN_MOTION_DOT":"-0.00875359","ARG_OF_PERICENTER":"267.1203","SEMIMAJOR_AXIS":"6755.508","ECCENTRICITY":"0.00014100","TIME_SYSTEM":"UTC","REV_AT_EPOCH":"130","CLASSIFICATION_TYPE":"U"},{"RA_OF_ASC_NODE":"110.5711","PERIOD":"92.096","DECAY_DATE":null,"GP_ID":"228209644","NORAD_CAT_ID":"55355","FILE":"3861599","INCLINATION":"43.0003","SEMIMAJOR_AXIS":"6755.422","ARG_OF_PERICENTER":"270.2542","ELEMENT_SET_NO":"999","MEAN_MOTION_DOT":"-0.00867420","REV_AT_EPOCH":"130","CLASSIFICATION_TYPE":"U","ECCENTRICITY":"0.00015320","TIME_SYSTEM":"UTC","CENTER_NAME":"EARTH","RCS_SIZE":"LARGE","OBJECT_TYPE":"PAYLOAD","MEAN_ELEMENT_THEORY":"SGP4","PERIAPSIS":"376.252","SITE":"AFETR","EPHEMERIS_TYPE":"0","TLE_LINE1":"1 55355U 23013AA  23074.91667824 -.00867420  00000-0 -99294-2 0  9995","EPOCH":"2023-03-15T22:00:00.999936","COUNTRY_CODE":"US","REF_FRAME":"TEME","MEAN_MOTION":"15.63594153","OBJECT_ID":"2023-013AA","MEAN_ANOMALY":"229.8326","BSTAR":"-0.00992940000000","MEAN_MOTION_DDOT":"0.0000000000000","APOAPSIS":"378.322","OBJECT_NAME":"STARLINK-5647","LAUNCH_DATE":"2023-01-26","TLE_LINE2":"2 55355  43.0003 110.5711 0001532 270.2542 229.8326 15.63594153  1302"},{"ARG_OF_PERICENTER":"81.6359","SEMIMAJOR_AXIS":"6698.206","MEAN_MOTION_DOT":"0.00124533","ELEMENT_SET_NO":"999","CLASSIFICATION_TYPE":"U","REV_AT_EPOCH":"756","ECCENTRICITY":"0.00053350","TIME_SYSTEM":"UTC","PERIOD":"90.928","RA_OF_ASC_NODE":"114.6275","DECAY_DATE":null,"GP_ID":"228210394","NORAD_CAT_ID":"55356","FILE":"3861599","INCLINATION":"42.9974","EPOCH":"2023-03-15T03:42:12.913632","MEAN_MOTION":"15.83671063","OBJECT_ID":"2023-013AB","REF_FRAME":"TEME","COUNTRY_CODE":"US","MEAN_MOTION_DDOT":"0.0000000000000","MEAN_ANOMALY":"278.5118","BSTAR":"0.00054117000000","TLE_LINE2":"2 55356  42.9974 114.6275 0005335  81.6359 278.5118 15.83671063  7565","APOAPSIS":"323.645","LAUNCH_DATE":"2023-01-26","OBJECT_NAME":"STARLINK-5083","MEAN_ELEMENT_THEORY":"SGP4","OBJECT_TYPE":"PAYLOAD","CENTER_NAME":"EARTH","RCS_SIZE":"LARGE","SITE":"AFETR","PERIAPSIS":"316.498","EPHEMERIS_TYPE":"0","TLE_LINE1":"1 55356U 23013AB  23074.15431613  .00124533  00000-0  54117-3 0  9992"},{"DECAY_DATE":null,"PERIOD":"92.095","RA_OF_ASC_NODE":"110.5689","FILE":"3861420","NORAD_CAT_ID":"55357","INCLINATION":"43.0002","GP_ID":"228181124","MEAN_MOTION_DOT":"-0.00866713","ELEMENT_SET_NO":"999","ARG_OF_PERICENTER":"268.4334","SEMIMAJOR_AXIS":"6755.373","ECCENTRICITY":"0.00015700","TIME_SYSTEM":"UTC","CLASSIFICATION_TYPE":"U","REV_AT_EPOCH":"810","SITE":"AFETR","PERIAPSIS":"376.178","EPHEMERIS_TYPE":"0","MEAN_ELEMENT_THEORY":"SGP4","OBJECT_TYPE":"PAYLOAD","RCS_SIZE":"LARGE","CENTER_NAME":"EARTH","TLE_LINE1":"1 55357U 23013AC  23074.91667824 -.00866713  00000-0 -99138-2 0  9998","OBJECT_ID":"2023-013AC","MEAN_MOTION":"15.63611001","REF_FRAME":"TEME","COUNTRY_CODE":"US","EPOCH":"2023-03-15T22:00:00.999936","TLE_LINE2":"2 55357  43.0002 110.5689 0001570 268.4334 232.4830 15.63611001  8104","APOAPSIS":"378.299","LAUNCH_DATE":"2023-01-26","OBJECT_NAME":"STARLINK-5651","MEAN_MOTION_DDOT":"0.0000000000000","MEAN_ANOMALY":"232.4830","BSTAR":"-0.00991380000000"},{"GP_ID":"228211396","INCLINATION":"42.9998","FILE":"3861599","NORAD_CAT_ID":"55358","RA_OF_ASC_NODE":"110.5732","PERIOD":"92.096","DECAY_DATE":null,"REV_AT_EPOCH":"130","CLASSIFICATION_TYPE":"U","TIME_SYSTEM":"UTC","ECCENTRICITY":"0.00014320","ARG_OF_PERICENTER":"268.8903","SEMIMAJOR_AXIS":"6755.461","ELEMENT_SET_NO":"999","MEAN_MOTION_DOT":"-0.00872771","TLE_LINE1":"1 55358U 23013AD  23074.91667824 -.00872771  00000-0 -10002-1 0  9992","RCS_SIZE":"LARGE","CENTER_NAME":"EARTH","MEAN_ELEMENT_THEORY":"SGP4","OBJECT_TYPE":"PAYLOAD","EPHEMERIS_TYPE":"0","SITE":"AFETR","PERIAPSIS":"376.359","BSTAR":"-0.01000200000000","MEAN_ANOMALY":"230.3660","MEAN_MOTION_DDOT":"0.0000000000000","OBJECT_NAME":"STARLINK-5622","LAUNCH_DATE":"2023-01-26","APOAPSIS":"378.293","TLE_LINE2":"2 55358  42.9998 110.5732 0001432 268.8903 230.3660 15.63580614  1307","EPOCH":"2023-03-15T22:00:00.999936","COUNTRY_CODE":"US","REF_FRAME":"TEME","MEAN_MOTION":"15.63580614","OBJECT_ID":"2023-013AD"},{"TLE_LINE1":"1 55359U 23013AE  23074.91667824 -.00867171  00000-0 -99134-2 0  9995","MEAN_ELEMENT_THEORY":"SGP4","OBJECT_TYPE":"PAYLOAD","CENTER_NAME":"EARTH","RCS_SIZE":"LARGE","EPHEMERIS_TYPE":"0","SITE":"AFETR","PERIAPSIS":"376.147","MEAN_MOTION_DDOT":"0.0000000000000","BSTAR":"-0.00991340000000","MEAN_ANOMALY":"235.5170","TLE_LINE2":"2 55359  42.9999 110.5669 0001549 266.2295 235.5170 15.63626696  1307","OBJECT_NAME":"STARLINK-5641","LAUNCH_DATE":"2023-01-26","APOAPSIS":"378.240","EPOCH":"2023-03-15T22:00:00.999936","OBJECT_ID":"2023-013AE","MEAN_MOTION":"15.63626696","COUNTRY_CODE":"US","REF_FRAME":"TEME","GP_ID":"228210144","INCLINATION":"42.9999","NORAD_CAT_ID":"55359","FILE":"3861599","PERIOD":"92.094","RA_OF_ASC_NODE":"110.5669","DECAY_DATE":null,"CLASSIFICATION_TYPE":"U","REV_AT_EPOCH":"130","TIME_SYSTEM":"UTC","ECCENTRICITY":"0.00015490","ARG_OF_PERICENTER":"266.2295","SEMIMAJOR_AXIS":"6755.328","MEAN_MOTION_DOT":"-0.00867171","ELEMENT_SET_NO":"999"},{"FILE":"3861599","NORAD_CAT_ID":"55360","INCLINATION":"43.0004","GP_ID":"228209895","DECAY_DATE":null,"RA_OF_ASC_NODE":"115.0136","PERIOD":"94.551","ECCENTRICITY":"0.00013030","TIME_SYSTEM":"UTC","REV_AT_EPOCH":"130","CLASSIFICATION_TYPE":"U","ELEMENT_SET_NO":"999","MEAN_MOTION_DOT":"-0.01170085","ARG_OF_PERICENTER":"271.1488","SEMIMAJOR_AXIS":"6874.991","TLE_LINE1":"1 55360U 23013AF  23074.91667824 -.01170085  00000-0 -53021-1 0  9993","SITE":"AFETR","PERIAPSIS":"495.960","EPHEMERIS_TYPE":"0","CENTER_NAME":"EARTH","RCS_SIZE":"LARGE","MEAN_ELEMENT_THEORY":"SGP4","OBJECT_TYPE":"PAYLOAD","APOAPSIS":"497.752","LAUNCH_DATE":"2023-01-26","OBJECT_NAME":"STARLINK-5664","TLE_LINE2":"2 55360  43.0004 115.0136 0001303 271.1488 213.5911 15.22981338  1305","MEAN_ANOMALY":"213.5911","BSTAR":"-0.05302100000000","MEAN_MOTION_DDOT":"0.0000000000000","REF_FRAME":"TEME","COUNTRY_CODE":"US","MEAN_MOTION":"15.22981338","OBJECT_ID":"2023-013AF","EPOCH":"2023-03-15T22:00:00.999936"},{"REV_AT_EPOCH":"766","CLASSIFICATION_TYPE":"U","ECCENTRICITY":"0.00011570","TIME_SYSTEM":"UTC","ARG_OF_PERICENTER":"276.9062","SEMIMAJOR_AXIS":"6733.109","ELEMENT_SET_NO":"999","MEAN_MOTION_DOT":"0.00005163","GP_ID":"228211146","FILE":"3861599","NORAD_CAT_ID":"55361","INCLINATION":"43.0009","RA_OF_ASC_NODE":"111.0182","PERIOD":"91.640","DECAY_DATE":null,"MEAN_ANOMALY":"83.1674","BSTAR":"0.00004276100000","MEAN_MOTION_DDOT":"0.0000000000000","APOAPSIS":"355.753","OBJECT_NAME":"STARLINK-5665","LAUNCH_DATE":"2023-01-26","TLE_LINE2":"2 55361  43.0009 111.0182 0001157 276.9062  83.1674 15.71372912  7664","EPOCH":"2023-03-15T19:37:44.382720","REF_FRAME":"TEME","COUNTRY_CODE":"US","OBJECT_ID":"2023-013AG","MEAN_MOTION":"15.71372912","TLE_LINE1":"1 55361U 23013AG  23074.81787480  .00005163  00000-0  42761-4 0  9997","CENTER_NAME":"EARTH","RCS_SIZE":"LARGE","OBJECT_TYPE":"PAYLOAD","MEAN_ELEMENT_THEORY":"SGP4","SITE":"AFETR","PERIAPSIS":"354.195","EPHEMERIS_TYPE":"0"},{"TLE_LINE1":"1 55362U 23013AH  23074.81797967  .00002763  00000-0  24510-4 0  9994","PERIAPSIS":"353.851","SITE":"AFETR","EPHEMERIS_TYPE":"0","OBJECT_TYPE":"PAYLOAD","MEAN_ELEMENT_THEORY":"SGP4","CENTER_NAME":"EARTH","RCS_SIZE":"LARGE","TLE_LINE2":"2 55362  43.0035 111.0186 0001735 274.3886  85.6784 15.71357351  8093","APOAPSIS":"356.187","LAUNCH_DATE":"2023-01-26","OBJECT_NAME":"STARLINK-5574","MEAN_MOTION_DDOT":"0.0000000000000","MEAN_ANOMALY":"85.6784","BSTAR":"0.00002451000000","MEAN_MOTION":"15.71357351","OBJECT_ID":"2023-013AH","REF_FRAME":"TEME","COUNTRY_CODE":"US","EPOCH":"2023-03-15T19:37:53.443488","FILE":"3861416","NORAD_CAT_ID":"55362","INCLINATION":"43.0035","GP_ID":"228180873","DECAY_DATE":null,"PERIOD":"91.641","RA_OF_ASC_NODE":"111.0186","ECCENTRICITY":"0.00017350","TIME_SYSTEM":"UTC","CLASSIFICATION_TYPE":"U","REV_AT_EPOCH":"809","MEAN_MOTION_DOT":"0.00002763","ELEMENT_SET_NO":"999","SEMIMAJOR_AXIS":"6733.154","ARG_OF_PERICENTER":"274.3886"},{"MEAN_MOTION":"15.18696800","OBJECT_ID":"2023-013AJ","COUNTRY_CODE":"US","REF_FRAME":"TEME","EPOCH":"2023-03-15T22:00:00.999936","TLE_LINE2":"2 55363  42.9999 115.4746 0001378 258.7445  35.1472 15.18696800  1308","LAUNCH_DATE":"2023-01-26","OBJECT_NAME":"STARLINK-5648","APOAPSIS":"510.729","MEAN_MOTION_DDOT":"0.0000000000000","BSTAR":"-0.06050200000000","MEAN_ANOMALY":"35.1472","EPHEMERIS_TYPE":"0","SITE":"AFETR","PERIAPSIS":"508.831","OBJECT_TYPE":"PAYLOAD","MEAN_ELEMENT_THEORY":"SGP4","CENTER_NAME":"EARTH","RCS_SIZE":"LARGE","TLE_LINE1":"1 55363U 23013AJ  23074.91667824 -.01176166  00000-0 -60502-1 0  9994","MEAN_MOTION_DOT":"-0.01176166","ELEMENT_SET_NO":"999","SEMIMAJOR_AXIS":"6887.915","ARG_OF_PERICENTER":"258.7445","TIME_SYSTEM":"UTC","ECCENTRICITY":"0.00013780","CLASSIFICATION_TYPE":"U","REV_AT_EPOCH":"130","DECAY_DATE":null,"PERIOD":"94.818","RA_OF_ASC_NODE":"115.4746","INCLINATION":"42.9999","FILE":"3861599","NORAD_CAT_ID":"55363","GP_ID":"228209645"}];
